{
  "type": "FeatureCollection",
  "name": "cauces",
  "crs": {
    "type": "name",
    "properties": {
      "name": "urn:ogc:def:crs:OGC:1.3:CRS84"
    }
  },
  "features": [
    {
      "type": "Feature",
      "geometry": {
        "type": "LineString",
        "coordinates": [
          [
            -75.67,
            6.32
          ],
          [
            -75.62,
            6.27
          ],
          [
            -75.58,
            6.24
          ],
          [
            -75.52,
            6.18
          ]
        ]
      },
      "properties": {
        "id_cauce": "C1",
        "orden": 1
      }
    },
    {
      "type": "Feature",
      "geometry": {
        "type": "LineString",
        "coordinates": [
          [
            -75.64,
            6.17
          ],
          [
            -75.61,
            6.21
          ],
          [
            -75.57,
            6.22
          ],
          [
            -75.49,
            6.25
          ]
        ]
      },
      "properties": {
        "id_cauce": "C2",
        "orden": 2
      }
    },
    {
      "type": "Feature",
      "geometry": {
        "type": "LineString",
        "coordinates": [
          [
            -75.55,
            6.33
          ],
          [
            -75.56,
            6.29
          ],
          [
            -75.58,
            6.24
          ]
        ]
      },
      "properties": {
        "id_cauce": "C3",
        "orden": 3
      }
    }
  ]
}