{
  "type": "FeatureCollection",
  "name": "limite_area_estudio",
  "crs": {
    "type": "name",
    "properties": {
      "name": "urn:ogc:def:crs:OGC:1.3:CRS84"
    }
  },
  "features": [
    {
      "type": "Feature",
      "geometry": {
        "type": "Polygon",
        "coordinates": [
          [
            [
              -75.68,
              6.15
            ],
            [
              -75.48,
              6.15
            ],
            [
              -75.48,
              6.34
            ],
            [
              -75.68,
              6.34
            ],
            [
              -75.68,
              6.15
            ]
          ]
        ]
      },
      "properties": {
        "nombre": "Área sintética de práctica",
        "fuente": "Generada para docencia"
      }
    }
  ]
}