{
  "type": "FeatureCollection",
  "name": "unidades_geologicas",
  "crs": {
    "type": "name",
    "properties": {
      "name": "urn:ogc:def:crs:OGC:1.3:CRS84"
    }
  },
  "features": [
    {
      "type": "Feature",
      "geometry": {
        "type": "Polygon",
        "coordinates": [
          [
            [
              -75.68,
              6.15
            ],
            [
              -75.6,
              6.15
            ],
            [
              -75.6,
              6.34
            ],
            [
              -75.68,
              6.34
            ],
            [
              -75.68,
              6.15
            ]
          ]
        ]
      },
      "properties": {
        "unidad": "U1",
        "litologia": "Metasedimentaria",
        "edad_ma": 120
      }
    },
    {
      "type": "Feature",
      "geometry": {
        "type": "Polygon",
        "coordinates": [
          [
            [
              -75.6,
              6.255
            ],
            [
              -75.48,
              6.255
            ],
            [
              -75.48,
              6.34
            ],
            [
              -75.6,
              6.34
            ],
            [
              -75.6,
              6.255
            ]
          ]
        ]
      },
      "properties": {
        "unidad": "U2",
        "litologia": "Volcánica",
        "edad_ma": 95
      }
    },
    {
      "type": "Feature",
      "geometry": {
        "type": "Polygon",
        "coordinates": [
          [
            [
              -75.535,
              6.15
            ],
            [
              -75.48,
              6.15
            ],
            [
              -75.48,
              6.255
            ],
            [
              -75.535,
              6.255
            ],
            [
              -75.535,
              6.15
            ]
          ]
        ]
      },
      "properties": {
        "unidad": "U3",
        "litologia": "Intrusiva",
        "edad_ma": 160
      }
    },
    {
      "type": "Feature",
      "geometry": {
        "type": "Polygon",
        "coordinates": [
          [
            [
              -75.6,
              6.15
            ],
            [
              -75.535,
              6.15
            ],
            [
              -75.535,
              6.255
            ],
            [
              -75.6,
              6.255
            ],
            [
              -75.6,
              6.15
            ]
          ]
        ]
      },
      "properties": {
        "unidad": "U4",
        "litologia": "Depósito cuaternario",
        "edad_ma": 25
      }
    }
  ]
}